NORAD_CAT_ID,OBJECT_NAME,OBJECT_TYPE,EPOCH,MEAN_MOTION,ECCENTRICITY,INCLINATION,RA_OF_ASC_NODE,ARG_OF_PERICENTER,MEAN_ANOMALY,BSTAR,MEAN_MOTION_DOT,MEAN_MOTION_DDOT,TLE_LINE0,TLE_LINE1,TLE_LINE2,SEMIMAJOR_AXIS,PERIOD,APOGEE,PERIGEE,DECAYED
54092.0,STARLINK-5190,PAYLOAD,2024-06-02 05:23:21,15.21784908,0.0003377,53.2168,341.7938,118.9548,241.1789,0.00047066,0.00010502,0.0,0 STARLINK-5190,1 54092U 22136AT  24154.22454884  .00010502  00000-0  47066-3 0  9991,2 54092  53.2168 341.7938 0003377 118.9548 241.1789 15.21784908 89686,6878.594,94.626,502.782,498.136,0.0
54092.0,STARLINK-5190,PAYLOAD,2024-06-03 05:01:55,15.21825292,0.0003203,53.2157,337.2814,121.7149,238.4161,0.00080641,0.00018269,0.0,0 STARLINK-5190,1 54092U 22136AT  24155.20967443  .00018269  00000-0  80641-3 0  9994,2 54092  53.2157 337.2814 0003203 121.7149 238.4161 15.21825292 90300,6878.472,94.623,502.54,498.134,0.0
54092.0,STARLINK-5190,PAYLOAD,2024-06-03 19:13:02,15.21881407,0.0003024,53.2154,334.572,121.1749,238.9545,0.00095403,0.0002172,0.0,0 STARLINK-5190,1 54092U 22136AT  24155.80072630  .00021720  00000-0  95403-3 0  9993,2 54092  53.2154 334.5720 0003024 121.1749 238.9545 15.21881407 90394,6878.303,94.62,502.248,498.088,0.0
54092.0,STARLINK-5190,PAYLOAD,2024-06-03 20:47:36,15.21890894,0.0002814,53.2156,334.272,126.8277,233.2979,0.0016042,0.00036834,0.0,0 STARLINK-5190,1 54092U 22136AT  24155.86639785  .00036834  00000-0  16042-2 0  9992,2 54092  53.2156 334.2720 0002814 126.8277 233.2979 15.21890894 89934,6878.274,94.619,502.075,498.204,0.0
54092.0,STARLINK-5190,PAYLOAD,2024-06-04 04:40:26,15.21909355,0.000276,53.2138,332.7673,126.6033,233.5219,0.0014866,0.00034115,0.0,0 STARLINK-5190,1 54092U 22136AT  24156.19475397  .00034115  00000-0  14866-2 0  9998,2 54092  53.2138 332.7673 0002760 126.6033 233.5219 15.21909355 90454,6878.219,94.618,501.982,498.185,0.0
54092.0,STARLINK-5190,PAYLOAD,2024-06-04 18:51:32,15.21935955,0.0004031,53.2204,330.0592,109.2033,250.9401,0.0014631,0.00033598,0.0,0 STARLINK-5190,1 54092U 22136AT  24156.78579408  .00033598  00000-0  14631-2 0  9995,2 54092  53.2204 330.0592 0004031 109.2033 250.9401 15.21935955 90540,6878.139,94.616,502.776,497.231,0.0
54092.0,STARLINK-5190,PAYLOAD,2024-06-05 04:18:55,15.21929268,0.0002473,53.2113,328.2553,134.5045,225.6155,0.00097738,0.00022293,0.0,0 STARLINK-5190,1 54092U 22136AT  24157.17981414  .00022293  00000-0  97738-3 0  9993,2 54092  53.2113 328.2553 0002473 134.5045 225.6155 15.21929268 90609,6878.159,94.617,501.725,498.323,0.0
54092.0,STARLINK-5190,PAYLOAD,2024-06-05 12:11:45,15.21927819,0.0003093,53.2146,326.7534,129.97,230.1569,0.00065448,0.00014803,0.0,0 STARLINK-5190,1 54092U 22136AT  24157.50816757  .00014803  00000-0  65448-3 0  9998,2 54092  53.2146 326.7534 0003093 129.9700 230.1569 15.21927819 90657,6878.163,94.617,502.156,497.901,0.0
54092.0,STARLINK-5190,PAYLOAD,2024-06-05 21:39:08,15.21935983,0.0002986,53.216,324.9485,132.267,227.8582,0.00053159,0.0001196,0.0,0 STARLINK-5190,1 54092U 22136AT  24157.90218544  .00011960  00000-0  53159-3 0  9999,2 54092  53.2160 324.9485 0002986 132.2670 227.8582 15.21935983 90245,6878.139,94.616,502.057,497.95,0.0
54092.0,STARLINK-5190,PAYLOAD,2024-06-06 03:57:24,15.21941241,0.0002954,53.2151,323.745,133.1874,226.9371,0.00051688,0.00011621,0.0,0 STARLINK-5190,1 54092U 22136AT  24158.16486313  .00011621  00000-0  51688-3 0  9998,2 54092  53.2151 323.7450 0002954 133.1874 226.9371 15.21941241 90289,6878.123,94.616,502.019,497.956,0.0
54092.0,STARLINK-5190,PAYLOAD,2024-06-06 18:08:28,15.2195537,0.0002828,53.2151,321.0375,133.5236,226.5998,0.00055791,0.00012577,0.0,0 STARLINK-5190,1 54092U 22136AT  24158.75588433  .00012577  00000-0  55791-3 0  9999,2 54092  53.2151 321.0375 0002828 133.5236 226.5998 15.21955370 90843,6878.08,94.615,501.89,498.0,0.0
54092.0,STARLINK-5190,PAYLOAD,2024-06-07 09:54:05,15.21968148,0.0002915,53.2136,318.0296,136.0967,224.0263,0.00045572,0.00010213,0.0,0 STARLINK-5190,1 54092U 22136AT  24159.41256833  .00010213  00000-0  45572-3 0  9990,2 54092  53.2136 318.0296 0002915 136.0967 224.0263 15.21968148 90474,6878.042,94.614,501.912,497.902,0.0
54092.0,STARLINK-5190,PAYLOAD,2024-06-07 17:46:54,15.21984321,0.0002586,53.212,316.5249,142.2135,217.9045,0.00070576,0.00016018,0.0,0 STARLINK-5190,1 54092U 22136AT  24159.74090593  .00016018  00000-0  70576-3 0  9996,2 54092  53.2120 316.5249 0002586 142.2135 217.9045 15.21984321 90524,6877.993,94.613,501.637,498.079,0.0
54092.0,STARLINK-5190,PAYLOAD,2024-06-08 20:34:23,15.22078986,0.0002597,53.2137,311.4106,140.0615,220.0574,0.0015299,0.00035301,0.0,0 STARLINK-5190,1 54092U 22136AT  24160.85721210  .00035301  00000-0  15299-2 0  9993,2 54092  53.2137 311.4106 0002597 140.0615 220.0574 15.22078986 91164,6877.708,94.607,501.359,497.787,0.0
54092.0,STARLINK-5190,PAYLOAD,2024-06-09 10:45:22,15.22124039,0.0002763,53.2143,308.7044,142.688,217.431,0.0014097,0.00032533,0.0,0 STARLINK-5190,1 54092U 22136AT  24161.44817169  .00032533  00000-0  14097-2 0  9997,2 54092  53.2143 308.7044 0002763 142.6880 217.4310 15.22124039 90784,6877.572,94.605,501.337,497.537,0.0
54092.0,STARLINK-5190,PAYLOAD,2024-06-09 20:12:40,15.22133417,0.000247,53.2138,306.8995,145.947,214.1687,0.0010352,0.0002378,0.0,0 STARLINK-5190,1 54092U 22136AT  24161.84214040  .00023780  00000-0  10352-2 0  9994,2 54092  53.2138 306.8995 0002470 145.9470 214.1687 15.22133417 90846,6877.544,94.604,501.107,497.71,0.0
54092.0,STARLINK-5190,PAYLOAD,2024-06-10 02:30:53,15.22138035,0.0002451,53.2139,305.6952,149.4241,210.69,0.00084428,0.00019324,0.0,0 STARLINK-5190,1 54092U 22136AT  24162.10478452  .00019324  00000-0  84428-3 0  9998,2 54092  53.2139 305.6952 0002451 149.4241 210.6900 15.22138035 91358,6877.53,94.604,501.081,497.709,0.0
54092.0,STARLINK-5190,PAYLOAD,2024-06-10 13:32:45,15.22141916,0.0002536,53.2128,303.5895,148.7826,211.3323,0.00049733,0.00011236,0.0,0 STARLINK-5190,1 54092U 22136AT  24162.56441113  .00011236  00000-0  49733-3 0  9996,2 54092  53.2128 303.5895 0002536 148.7826 211.3323 15.22141916 90958,6877.518,94.604,501.127,497.639,0.0
54092.0,STARLINK-5190,PAYLOAD,2024-06-10 16:41:51,15.22145743,0.0002532,53.2128,302.9878,148.8971,211.2177,0.00053188,0.00012042,0.0,0 STARLINK-5190,1 54092U 22136AT  24162.69573226  .00012042  00000-0  53188-3 0  9996,2 54092  53.2128 302.9878 0002532 148.8971 211.2177 15.22145743 91443,6877.507,94.603,501.113,497.63,0.0
54092.0,STARLINK-5190,PAYLOAD,2024-06-11 13:11:00,15.22165063,0.0002551,53.2127,299.0766,150.0197,210.0947,0.00054364,0.00012323,0.0,0 STARLINK-5190,1 54092U 22136AT  24163.54931344  .00012323  00000-0  54364-3 0  9999,2 54092  53.2127 299.0766 0002551 150.0197 210.0947 15.22165063 91102,6877.448,94.602,501.068,497.559,0.0
54092.0,STARLINK-5190,PAYLOAD,2024-06-12 01:47:24,15.22173354,0.0002544,53.212,296.6694,152.1788,207.9346,0.00043652,9.829e-05,0.0,0 STARLINK-5190,1 54092U 22136AT  24164.07458905  .00009829  00000-0  43652-3 0  9990,2 54092  53.2120 296.6694 0002544 152.1788 207.9346 15.22173354 91659,6877.423,94.602,501.038,497.539,0.0
54092.0,STARLINK-5190,PAYLOAD,2024-06-12 15:58:20,15.22186335,0.0002482,53.2116,293.9613,154.2687,205.8434,0.00042914,9.661e-05,0.0,0 STARLINK-5190,1 54092U 22136AT  24164.66551919  .00009661  00000-0  42914-3 0  9998,2 54092  53.2116 293.9613 0002482 154.2687 205.8434 15.22186335 91273,6877.384,94.601,500.956,497.542,0.0
54092.0,STARLINK-5190,PAYLOAD,2024-06-13 12:27:28,15.22202251,0.0002393,53.2107,290.0494,157.0808,203.0298,0.00037676,8.444e-05,0.0,0 STARLINK-5190,1 54092U 22136AT  24165.51907719  .00008444  00000-0  37676-3 0  9993,2 54092  53.2107 290.0494 0002393 157.0808 203.0298 15.22202251 91875,6877.336,94.6,500.847,497.556,0.0
54092.0,STARLINK-5190,PAYLOAD,2024-06-13 14:02:01,15.22203456,0.0002387,53.2107,289.7485,157.3297,202.7807,0.00037748,8.461e-05,0.0,0 STARLINK-5190,1 54092U 22136AT  24165.58473514  .00008461  00000-0  37748-3 0  9990,2 54092  53.2107 289.7485 0002387 157.3297 202.7807 15.22203456 91418,6877.333,94.6,500.839,497.556,0.0
54092.0,STARLINK-5190,PAYLOAD,2024-06-14 13:40:13,15.22219204,0.0002367,53.2102,285.235,160.5201,199.5888,0.00035983,8.053e-05,0.0,0 STARLINK-5190,1 54092U 22136AT  24166.56959951  .00008053  00000-0  35983-3 0  9999,2 54092  53.2102 285.2350 0002367 160.5201 199.5888 15.22219204 91560,6877.285,94.599,500.778,497.522,0.0
54092.0,STARLINK-5190,PAYLOAD,2024-06-14 16:49:18,15.22221077,0.0002342,53.2101,284.633,160.6584,199.4503,0.00035515,7.945e-05,0.0,0 STARLINK-5190,1 54092U 22136AT  24166.70091404  .00007945  00000-0  35515-3 0  9995,2 54092  53.2101 284.6330 0002342 160.6584 199.4503 15.22221077 91584,6877.28,94.599,500.755,497.534,0.0
54092.0,STARLINK-5190,PAYLOAD,2024-06-15 13:18:24,15.22234991,0.000223,53.2099,280.7199,161.1417,198.9664,0.00036607,8.203e-05,0.0,0 STARLINK-5190,1 54092U 22136AT  24167.55445395  .00008203  00000-0  36607-3 0  9992,2 54092  53.2099 280.7199 0002230 161.1417 198.9664 15.22234991 91713,6877.238,94.598,500.636,497.569,0.0
54092.0,STARLINK-5190,PAYLOAD,2024-06-16 12:56:35,15.22251852,0.0002232,53.2092,276.2067,165.5547,194.5515,0.00036561,8.196e-05,0.0,0 STARLINK-5190,1 54092U 22136AT  24168.53929683  .00008196  00000-0  36561-3 0  9998,2 54092  53.2092 276.2067 0002232 165.5547 194.5515 15.22251852 91862,6877.187,94.597,500.587,497.517,0.0
54092.0,STARLINK-5190,PAYLOAD,2024-06-17 12:34:44,15.22266712,0.0002185,53.2087,271.6928,169.1578,190.9468,0.00031988,7.132e-05,0.0,0 STARLINK-5190,1 54092U 22136AT  24169.52412934  .00007132  00000-0  31988-3 0  9991,2 54092  53.2087 271.6928 0002185 169.1578 190.9468 15.22266712 92018,6877.142,94.596,500.51,497.505,0.0
54092.0,STARLINK-5190,PAYLOAD,2024-06-18 12:12:53,15.22280724,0.0002121,53.2081,267.1788,173.0015,187.1012,0.00030548,6.799e-05,0.0,0 STARLINK-5190,1 54092U 22136AT  24170.50895275  .00006799  00000-0  30548-3 0  9993,2 54092  53.2081 267.1788 0002121 173.0015 187.1012 15.22280724 92164,6877.1,94.595,500.424,497.506,0.0
